{"fetched_at":"2026-07-10T07:58:43.188Z","source":"https://celestrak.org/NORAD/elements/gp.php?GROUP=planet&FORMAT=JSON","constellation":"tanager","records":[{"OBJECT_NAME":"TANAGER-1","OBJECT_ID":"2024-149AR","EPOCH":"2026-07-09T16:54:52.662816","CLASSIFICATION_TYPE":"U","MEAN_MOTION":15.43935842,"ECCENTRICITY":0.0002763,"INCLINATION":97.2281,"RA_OF_ASC_NODE":284.8679,"ARG_OF_PERICENTER":147.2432,"MEAN_ANOMALY":212.8988,"EPHEMERIS_TYPE":0,"NORAD_CAT_ID":60507,"ELEMENT_SET_NO":999,"REV_AT_EPOCH":10651,"BSTAR":0.0000072329,"MEAN_MOTION_DOT":0.00000245,"MEAN_MOTION_DDOT":0}]}
